[{"OBJECT_NAME":"STARLINK-30616","OBJECT_ID":"2023-161J","EPOCH":"2026-03-09T11:49:41.118528","MEAN_MOTION":15.30188143,"ECCENTRICITY":0.00010948,"INCLINATION":53.1589,"RA_OF_ASC_NODE":153.3388,"ARG_OF_PERICENTER":105.5199,"MEAN_ANOMALY":254.5922,"EPHEMERIS_TYPE":0,"CLASSIFICATION_TYPE":"U","NORAD_CAT_ID":58105,"ELEMENT_SET_NO":999,"REV_AT_EPOCH":13456,"BSTAR":8.087974e-5,"MEAN_MOTION_DOT":2.036e-5,"MEAN_MOTION_DDOT":0},{"OBJECT_NAME":"NOAA 17 DEB","OBJECT_ID":"2002-032DK","EPOCH":"2026-03-06T06:53:22.349472","MEAN_MOTION":15.29547844,"ECCENTRICITY":0.00135803,"INCLINATION":98.6735,"RA_OF_ASC_NODE":77.6727,"ARG_OF_PERICENTER":131.2945,"MEAN_ANOMALY":228.9463,"EPHEMERIS_TYPE":0,"CLASSIFICATION_TYPE":"U","NORAD_CAT_ID":49481,"ELEMENT_SET_NO":999,"REV_AT_EPOCH":24998,"BSTAR":0.011623019,"MEAN_MOTION_DOT":0.00349096,"MEAN_MOTION_DDOT":0}]
